IRIDIUM 136             
1 42962U 17061H   24004.61183711  .00000292  00000+0  97205-4 0  9995
2 42962  86.3959  39.0921 0002408  94.5918 265.5553 14.34217042326616
